OBJECT_NAME,OBJECT_ID,EPOCH,MEAN_MOTION,ECCENTRICITY,INCLINATION,RA_OF_ASC_NODE,ARG_OF_PERICENTER,MEAN_ANOMALY,EPHEMERIS_TYPE,CLASSIFICATION_TYPE,NORAD_CAT_ID,ELEMENT_SET_NO,REV_AT_EPOCH,BSTAR,MEAN_MOTION_DOT,MEAN_MOTION_DDOT
GEOSCAN 3 (RS92S3),2025-155T,2026-07-10T18:41:50.284608,15.36207757,.0008651,97.4541,161.9454,98.6976,261.5248,0,U,64893,999,8447,.3605E-3,.12659E-3,0
INNOSAT 3 (RS92S0),2025-155U,2026-07-10T18:18:48.231072,15.45584941,.0008328,97.4487,163.8540,100.7282,259.4905,0,U,64894,999,8460,.59606E-3,.28677E-3,0
KNACKSAT-2,1998-067XZ,2026-07-08T06:51:35.208288,15.61884949,.00082087,51.6260,188.2015,303.7179,56.3032,0,U,67683,999,2357,.40782476E-3,.35828E-3,0
