GEOSCAN 3 (RS92S3)      
1 64893U 25155T   26191.77905422  .00012659  00000+0  36050-3 0  9992
2 64893  97.4541 161.9454 0008651  98.6976 261.5248 15.36207757 84471
INNOSAT 3 (RS92S0)      
1 64894U 25155U   26191.76305823  .00028677  00000+0  59606-3 0  9990
2 64894  97.4487 163.8540 0008328 100.7282 259.4905 15.45584941 84608
KNACKSAT-2              
1 67683U 98067XZ  26189.28582417  .00035828  00000+0  40782-3 0  9992
2 67683  51.6260 188.2015 0008208 303.7179  56.3032 15.61884949 23576
